[{"OBJECT_NAME":"MONITOR-2 (RS39S)","OBJECT_ID":"2023-091U","EPOCH":"2026-03-09T22:29:03.497856","MEAN_MOTION":15.17917968,"ECCENTRICITY":0.00130556,"INCLINATION":97.5198,"RA_OF_ASC_NODE":127.8703,"ARG_OF_PERICENTER":98.0854,"MEAN_ANOMALY":262.1862,"EPHEMERIS_TYPE":0,"CLASSIFICATION_TYPE":"U","NORAD_CAT_ID":57184,"ELEMENT_SET_NO":999,"REV_AT_EPOCH":14889,"BSTAR":0.00030772379,"MEAN_MOTION_DOT":6.188e-5,"MEAN_MOTION_DDOT":0},{"OBJECT_NAME":"OBJECT E","OBJECT_ID":"2025-108E","EPOCH":"2026-03-09T22:47:33.087264","MEAN_MOTION":15.21687985,"ECCENTRICITY":0.00120507,"INCLINATION":97.4733,"RA_OF_ASC_NODE":146.3251,"ARG_OF_PERICENTER":355.0627,"MEAN_ANOMALY":5.0488,"EPHEMERIS_TYPE":0,"CLASSIFICATION_TYPE":"U","NORAD_CAT_ID":64091,"ELEMENT_SET_NO":999,"REV_AT_EPOCH":4434,"BSTAR":0.00076441924,"MEAN_MOTION_DOT":0.00017283,"MEAN_MOTION_DDOT":0}]
